IRIDIUM 119             
1 42959U 17061E   24056.95091021  .00000181  00000+0  57617-4 0  9997
2 42959  86.4004  17.2036 0001943  87.7818 272.3600 14.34217888334093
IRIDIUM 107             
1 42960U 17061F   24056.90016924  .00000185  00000+0  58998-4 0  9990
2 42960  86.4003  17.2408 0002199  95.3086 264.8361 14.34218125334098
IRIDIUM 132             
1 42961U 17061G   24056.90651268 -.00000006  00000+0 -93615-5 0  9997
2 42961  86.3998  17.2239 0001986  93.1003 267.0420 14.34217359334090
IRIDIUM 136             
1 42962U 17061H   24056.93822446  .00000145  00000+0  44813-4 0  9996
2 42962  86.4005  17.2133 0001960  82.0005 278.1413 14.34217570334118
IRIDIUM 139             
1 42963U 17061J   24056.94456840  .00000195  00000+0  62395-4 0  9999
2 42963  86.4005  17.2588 0002154  92.1760 267.9682 14.34218366334128
IRIDIUM 125             
1 42964U 17061K   24056.93188286  .00000225  00000+0  73315-4 0  9993
2 42964  86.4007  17.3097 0001799  92.5926 267.5476 14.34217877334133
IRIDIUM 135             
1 43070U 17083A   24057.25485211  .00000290  00000+0  96343-4 0  9998
2 43070  86.3985 313.8965 0002425  85.7271 274.4202 14.34218528323471
IRIDIUM 138             
1 43071U 17083B   24056.79184127  .00000191  00000+0  61206-4 0  9999
2 43071  86.3974 313.8213 0001796  83.9983 276.1417 14.34218325323399
